OPTICUBE 04             
1 41851U 16067D   23242.37980657  .00002497  00000+0  20436-3 0  9996
2 41851  98.0644  31.2499 0014595 309.9152  50.0787 15.00237454371451
AEROCUBE 8D             
1 41852U 16067E   23241.64791379  .00005139  00000+0  38905-3 0  9993
2 41852  98.0741  31.8605 0006037  10.8919 349.2435 15.02768089371397
AEROCUBE 8C             
1 41853U 16067F   23241.64570589  .00005124  00000+0  38888-3 0  9996
2 41853  98.0543  31.2025 0008966 305.6179  54.4209 15.02654863371381
PROMETHEUS 2-1          
1 41854U 16067G   23242.43115993  .00008408  00000+0  56433-3 0  9993
2 41854  98.0769  35.6882 0015788 328.9720  31.0572 15.06997614371664
PROMETHEUS 2-3          
1 41855U 16067H   23242.35875481  .00008335  00000+0  56010-3 0  9990
2 41855  98.0691  35.3944 0013427 339.9179  20.1517 15.06984485371652
INS-1B                  
1 41954U 17008G   23242.09904867  .00166821  00000+0  11816-2 0  9997
2 41954  97.1881 304.2016 0002896 144.7543 215.3914 15.73467161364434
DIDO-2                  
1 42000U 17008BE  23241.72762428  .00022032  00000+0  50103-3 0  9992
2 42000  97.1950 296.7601 0006960 125.2008 234.9893 15.42978391363266
PEASSS                  
1 42015U 17008BV  23241.70962360  .00076148  00000+0  89178-3 0  9994
2 42015  97.1982 305.8385 0003831 123.1634 236.9992 15.61288043364299
UCLSAT                  
1 42765U 17036A   23242.65831188  .00084955  00000+0  97673-3 0  9999
2 42765  97.1329 281.5796 0006793 158.3922 201.7624 15.61719072344877
AALTO-1                 
1 42775U 17036L   23242.55324732  .00018847  00000+0  49805-3 0  9992
2 42775  97.1474 270.5755 0009418 182.1230 177.9977 15.38426812343949
URSA MAIOR              
1 42776U 17036M   23241.66612724  .00022069  00000+0  53810-3 0  9997
2 42776  97.1486 271.2938 0009203 180.0209 180.1040 15.40858613343891
DIAMOND RED             
1 42783U 17036U   23241.34989624  .00029125  00000+0  62179-3 0  9994
2 42783  97.1457 274.6452 0007547 179.3853 180.7406 15.44796323344076
PEGASUS                 
1 42784U 17036V   23242.68137970  .00049461  00000+0  74784-3 0  9992
2 42784  97.1401 279.5235 0007513 161.4175 198.7355 15.54524758344525
DIAMOND GREEN           
1 42785U 17036W   23242.06741143  .00034493  00000+0  69662-3 0  9996
2 42785  97.1442 275.6846 0007528 175.5427 184.5891 15.46394148344198
DIAMOND BLUE            
1 42786U 17036X   23241.60032301  .00028162  00000+0  58393-3 0  9990
2 42786  97.1447 275.1116 0007576 177.1975 182.9318 15.45662332344196
SUCHAI                  
1 42788U 17036Z   23242.33568303  .00199501  00000+0  12870-2 0  9994
2 42788  97.1312 284.5004 0007064 167.8635 192.2803 15.75528027344895
SKCUBE                  
1 42789U 17036AA  23242.67059944  .00088322  00000+0  97108-3 0  9994
2 42789  97.1344 282.3433 0007478 159.3594 200.7969 15.62857288344700
ROBUSTA 1B              
1 42792U 17036AD  23242.07240321  .00144000  00000+0  11620-2 0  9993
2 42792  97.1316 283.5319 0006811 160.7140 199.4382 15.70403927344745
CICERO 6                
1 42793U 17036AE  23241.54358860  .00022267  00000+0  51536-3 0  9994
2 42793  97.1438 274.7408 0006919 178.2851 181.8422 15.42448970344199
CORVUS BC2              
1 42846U 17042X   23242.49290188  .00002875  00000+0  26686-3 0  9994
2 42846  97.3826  79.3330 0007925 332.3434  27.7365 14.95121979333828
CORVUS BC1              
1 42847U 17042Y   23242.14486811  .00002313  00000+0  21517-3 0  9992
2 42847  97.3820  79.3684 0007801 331.3834  28.6959 14.95214647333780
MIRATA                  
1 43015U 17073C   23241.63801339  .00012595  00000+0  76455-3 0  9997
2 43015  97.6238 127.3232 0205965 168.8707 191.7175 14.94574775312453
MAKERSAT 0              
1 43016U 17073D   23242.16528804  .00007843  00000+0  51735-3 0  9994
2 43016  97.6212 125.4283 0221769 178.3284 181.8727 14.89712084312316
CORVUS BC3              
1 43118U 18004H   23241.76095939  .00024348  00000+0  57474-3 0  9990
2 43118  97.3211 316.1633 0006077 226.8061 133.2679 15.41846732313368
CICERO 7                
1 43143U 18004AJ  23242.19351612  .00082046  00000+0  81307-3 0  9990
2 43143  97.3250 331.2396 0003638 208.7301 151.3759 15.65550614314299
GOMX-4B                 
1 43196U 18015E   23242.65716985  .00015293  00000+0  39822-3 0  9994
2 43196  97.5863  35.9338 0012635 300.6100  59.3898 15.38901828310394
GOMX-4A                 
1 43197U 18015F   23242.68728968  .00019901  00000+0  45669-3 0  9998
2 43197  97.5858  38.4685 0011904 293.5301  66.4695 15.42686865310573
CUBEBEL-1 (BSUSAT-1)    
1 43666U 18083E   23242.70252336  .00037054  00000+0  82831-3 0  9999
2 43666  97.3747 274.9924 0008522 194.2439 165.8570 15.43377087268676
CICERO 10               
1 43690U 18088A   23241.82673433  .00022400  00000+0  57014-3 0  9992
2 43690  85.0308  22.6310 0008919 321.2500  38.8110 15.39410754266792
PROXIMA I               
1 43694U 18088E   23242.41692471  .00027924  00000+0  63075-3 0  9995
2 43694  85.0249  17.5740 0010632 275.5379  84.4662 15.42991002267200
PROXIMA II              
1 43696U 18088G   23242.63230824  .00028621  00000+0  64980-3 0  9992
2 43696  85.0254  17.4893 0010748 274.7094  85.2931 15.42836067267239
SIRION PATHFINDER-2     
1 43759U 18099B   23242.15080453  .00002748  00000+0  22969-3 0  9995
2 43759  97.5662 301.7288 0012581 226.8440 133.1732 14.99258960258702
CORVUS BC4              
1 43767U 18099K   23242.40868980  .00002579  00000+0  21886-3 0  9990
2 43767  97.5610 299.8182 0009855 230.6680 129.3670 14.98743021258640
MOVE-II                 
1 43780U 18099Y   23242.66103184  .00010633  00000+0  74749-3 0  9997
2 43780  97.5657 305.1646 0007602 254.9966 105.0420 15.05252519258938
SPACEBEE-7              
1 43816U 18099BL  23242.44301882  .00007007  00000+0  51486-3 0  9992
2 43816  97.5938 305.8634 0011459 196.6582 163.4269 15.03689850258462
SPACEBEE-5              
1 43817U 18099BM  23242.67903213  .00038118  00000+0  16125-2 0  9991
2 43817  97.5863 315.1901 0004949 180.8098 179.3131 15.23088201259015
SPACEBEE-6              
1 43818U 18099BN  23241.74136506  .00012528  00000+0  81830-3 0  9995
2 43818  97.5842 307.5686 0011303 216.3918 143.6542 15.07913946258649
SHIELDS 1               
1 43850U 18104B   23242.68676355  .00007201  00000+0  24778-3 0  9993
2 43850  85.0256 119.6291 0015379  81.9526 278.3465 15.29749408261499
STF-1                   
1 43852U 18104D   23242.14878557  .00035447  00000+0  65984-3 0  9991
2 43852  85.0209 116.4547 0012109  79.4922 280.7698 15.48616761261826
ZACUBE-2                
1 43907U 18111AH  23242.73540160  .00029673  00000+0  63082-3 0  9992
2 43907  97.1251 120.7470 0010830 308.7449  51.2831 15.44885095260645
LUME 1                  
1 43908U 18111AJ  23242.42492753  .00040896  00000+0  67112-3 0  9991
2 43908  97.1250 124.8349 0007829 292.6726  67.3699 15.52290070260886
MOVE-IIB                
1 44398U 19038N   23242.00378219  .00075064  00000+0  13248-2 0  9993
2 44398  97.6624 228.8377 0012206  50.6387 309.5943 15.50040101230062
SONATE                  
1 44400U 19038Q   23241.92906852  .00010645  00000+0  45468-3 0  9991
2 44400  97.6896 221.1979 0021949  59.3334 301.0062 15.22847386229452
LUCKY-7                 
1 44406U 19038W   23241.46919714  .00014747  00000+0  56861-3 0  9993
2 44406  97.6853 222.3208 0020175  56.0092 304.3059 15.26233169229492
BEESAT 9                
1 44412U 19038AC  23241.76791441  .00027773  00000+0  84738-3 0  9995
2 44412  97.6781 225.0435 0016331  55.0553 305.2220 15.33768509229423
JAISAT-1                
1 44419U 19038F   23241.70386916  .00028095  00000+0  85044-3 0  9992
2 44419  97.6771 226.0881 0015539  52.5145 307.7507 15.34029358229791
DUCHIFAT-3              
1 44854U 19089C   23242.68619154  .00008658  00000+0  56312-3 0  9991
2 44854  36.9627   5.6268 0007860 210.8537 149.1746 15.07530806204074
EYESAT-NANO             
1 44877U 19092E   23242.08513405  .00077626  00000+0  12933-2 0  9997
2 44877  97.4549  74.6516 0007006 224.6330 135.4359 15.51714285205525
M2 PATHFINDER           
1 45727U 20037E   23242.52593780  .00002132  00000+0  20250-3 0  9998
2 45727  97.7625  56.3622 0012566  22.7326 337.4448 14.94506737172345
NETSAT-4                
1 46504U 20068U   23242.62376802  .00005565  00000+0  35984-3 0  9994
2 46504  97.7659 189.2045 0008773 277.8801  82.1431 15.08590521160126
NETSAT-3                
1 46505U 20068V   23242.13605492  .00006743  00000+0  43785-3 0  9998
2 46505  97.7640 188.4928 0008092 290.8248  69.2113 15.08359920160053
NETSAT-1                
1 46506U 20068W   23242.59490283  .00005350  00000+0  35239-3 0  9997
2 46506  97.7658 188.8049 0006685 302.6580  57.4002 15.07936964160119
NETSAT-2                
1 46507U 20068X   23242.42626194  .00005551  00000+0  35984-3 0  9992
2 46507  97.7646 188.7290 0005989 313.1116  46.9610 15.08514344160047
SAI-1 NANOCONNECT-2     
1 47701U 21015C   23242.22478858  .00078906  00000+0  10282-2 0  9999
2 47701  97.3790 327.6643 0005511 297.1801  62.8893 15.58450658139643
WILDTRACKCUBE-SIMBA     
1 47941U 21022K   23242.71033337  .00006976  00000+0  39274-3 0  9997
2 47941  97.4879 138.4412 0020781  80.3495 280.0082 15.13362345134271
BEESAT-6                
1 47957U 21022AB  23241.94646557  .00020400  00000+0  88770-3 0  9995
2 47957  97.4849 140.3406 0018061  76.2710 284.0535 15.22124037134149
SMOG-1                  
1 47964U 21022AJ  23242.25337292  .00020521  00000+0  84395-3 0  9994
2 47964  97.4892 142.9227 0016208  63.9792 296.3112 15.24064929133341
BCCSAT-1                
1 48041U 21022AK  23241.67866469  .00017930  00000+0  79983-3 0  9996
2 48041  97.4891 140.9932 0014056  67.1262 293.1456 15.21363262133148
BEESAT-5                
1 48083U 21022AM  23242.16824290  .00022465  00000+0  92575-3 0  9994
2 48083  97.4743 140.8537 0017503  74.3529 285.9638 15.23958764133348
